
# Worst residual: 3.46 km
# MJD 59042.000000 (2020 Jul 12  0:00)
S509559
1 89990U 00000AAJ 20194.49919926  .00000000  00000-0  00000-0 0  7224
2 89990 024.0079 026.9369 4704984 030.4214 196.9085 00.21350922    06

# Worst residual: 14.28 km
# MJD 59043.000000 (2020 Jul 13  0:00)
S509559
1 89990U 00000AAJ 20195.49919926  .00000000  00000-0  00000-0 0  7225
2 89990 024.0130 026.9357 4705520 030.3375 273.9042 00.21329990    05

# Worst residual: 46.21 km
# MJD 59044.000000 (2020 Jul 14  0:00)
S509559
1 89990U 00000AAJ 20196.49919926  .00000000  00000-0  00000-0 0  7226
2 89990 024.0161 026.9507 4730343 030.3502 350.7974 00.21248985    01

# Worst residual: 34.30 km
# MJD 59045.000000 (2020 Jul 15  0:00)
S509559
1 89990U 00000AAJ 20197.49919926  .00000000  00000-0  00000-0 0  7227
2 89990 024.0204 026.9378 4711240 030.6537 067.3421 00.21293025    04

# Worst residual: 6.93 km
# MJD 59046.000000 (2020 Jul 16  0:00)
S509559
1 89990U 00000AAJ 20198.49919926  .00000000  00000-0  00000-0 0  7228
2 89990 024.0249 026.9408 4706124 030.4721 144.4811 00.21350521    00

# Worst residual: 4.67 km
# MJD 59047.000000 (2020 Jul 17  0:00)
S509559
1 89990U 00000AAJ 20199.49919926  .00000000  00000-0  00000-0 0  7229
2 89990 024.0274 026.9378 4708667 030.4905 221.3082 00.21358875    07

# Worst residual: 5.88 km
# MJD 59048.000000 (2020 Jul 18  0:00)
S509559
1 89990U 00000AAJ 20200.49919926  .00000000  00000-0  00000-0 0  7222
2 89990 024.0331 026.9380 4705932 030.5951 297.9836 00.21377475    01

# Worst residual: 30.34 km
# MJD 59049.000000 (2020 Jul 19  0:00)
S509559
1 89990U 00000AAJ 20201.49919926  .00000000  00000-0  00000-0 0  7223
2 89990 024.0384 026.9415 4721099 030.6531 014.8285 00.21297060    00

# Worst residual: 26.79 km
# MJD 59050.000000 (2020 Jul 20  0:00)
S509559
1 89990U 00000AAJ 20202.49919926  .00000000  00000-0  00000-0 0  7224
2 89990 024.0440 026.9453 4707786 030.7417 091.5819 00.21315287    03

# Worst residual: 9.98 km
# MJD 59051.000000 (2020 Jul 21  0:00)
S509559
1 89990U 00000AAJ 20203.49919926  .00000000  00000-0  00000-0 0  7225
2 89990 024.0485 026.9478 4701835 030.5397 168.8642 00.21353584    07

# Worst residual: 3.08 km
# MJD 59052.000000 (2020 Jul 22  0:00)
S509559
1 89990U 00000AAJ 20204.49919926  .00000000  00000-0  00000-0 0  7226
2 89990 024.0529 026.9459 4696911 030.4818 245.8178 00.21339166    00

# Worst residual: 13.48 km
# MJD 59053.000000 (2020 Jul 23  0:00)
S509559
1 89990U 00000AAJ 20205.49919926  .00000000  00000-0  00000-0 0  7227
2 89990 024.0593 026.9446 4689059 030.5708 322.4288 00.21366297    00

# Worst residual: 20.96 km
# MJD 59054.000000 (2020 Jul 24  0:00)
S509559
1 89990U 00000AAJ 20206.49919926  .00000000  00000-0  00000-0 0  7228
2 89990 024.0646 026.9452 4686050 030.5695 039.2908 00.21380966    00

# Worst residual: 20.79 km
# MJD 59055.000000 (2020 Jul 25  0:00)
S509559
1 89990U 00000AAJ 20207.49919926  .00000000  00000-0  00000-0 0  7229
2 89990 024.0869 026.9329 4706942 030.7137 115.6577 00.21321929    01

# Worst residual: 9.12 km
# MJD 59056.000000 (2020 Jul 26  0:00)
S509559
1 89990U 00000AAJ 20208.49919926  .00000000  00000-0  00000-0 0  7220
2 89990 024.1208 026.9538 4734536 030.6688 192.4123 00.21377666    00

# Worst residual: 15.28 km
# MJD 59057.000000 (2020 Jul 27  0:00)
S509559
1 89990U 00000AAJ 20209.49919926  .00000000  00000-0  00000-0 0  7221
2 89990 024.1331 026.9710 4747517 030.6071 269.5786 00.21384746    06

# Worst residual: 41.53 km
# MJD 59058.000000 (2020 Jul 28  0:00)
S509559
1 89990U 00000AAJ 20210.49919926  .00000000  00000-0  00000-0 0  7223
2 89990 024.1369 026.9838 4769467 030.5615 346.6916 00.21303408    07

# Worst residual: 32.94 km
# MJD 59059.000000 (2020 Jul 29  0:00)
S509559
1 89990U 00000AAJ 20211.49919926  .00000000  00000-0  00000-0 0  7224
2 89990 024.1394 026.9719 4755302 030.8632 063.3621 00.21327625    01

# Worst residual: 13.26 km
# MJD 59060.000000 (2020 Jul 30  0:00)
S509559
1 89990U 00000AAJ 20212.49919926  .00000000  00000-0  00000-0 0  7225
2 89990 024.1489 026.9744 4738141 030.7311 140.6482 00.21372363    02

# Worst residual: 19.94 km
# MJD 59061.000000 (2020 Jul 31  0:00)
S509559
1 89990U 00000AAJ 20213.49919926  .00000000  00000-0  00000-0 0  7226
2 89990 024.1648 026.9898 4712492 030.7893 217.3123 00.21320360    09

# Worst residual: 23.94 km
# MJD 59062.000000 (2020 Aug  1  0:00)
S509559
1 89990U 00000AAJ 20214.49919926  .00000000  00000-0  00000-0 0  7227
2 89990 024.1741 027.0050 4691494 030.9962 293.4458 00.21351562    06

# Worst residual: 23.39 km
# MJD 59063.000000 (2020 Aug  2  0:00)
S509559
1 89990U 00000AAJ 20215.49919926  .00000000  00000-0  00000-0 0  7228
2 89990 024.1816 027.0098 4689164 031.0691 010.1947 00.21361952    04

# Worst residual: 10.78 km
# MJD 59064.000000 (2020 Aug  3  0:00)
S509559
1 89990U 00000AAJ 20216.49919926  .00000000  00000-0  00000-0 0  7229
2 89990 024.1870 027.0168 4693660 031.2096 086.7854 00.21304551    07

# Worst residual: 13.61 km
# MJD 59065.000000 (2020 Aug  4  0:00)
S509559
1 89990U 00000AAJ 20217.49919926  .00000000  00000-0  00000-0 0  7220
2 89990 024.1938 027.0199 4697262 031.0207 163.9116 00.21352372    03

# Worst residual: 11.61 km
# MJD 59066.000000 (2020 Aug  5  0:00)
S509559
1 89990U 00000AAJ 20218.49919926  .00000000  00000-0  00000-0 0  7221
2 89990 024.2003 027.0214 4702298 030.8876 241.1052 00.21352974    06

# Worst residual: 4.09 km
# MJD 59067.000000 (2020 Aug  6  0:00)
S509559
1 89990U 00000AAJ 20219.49919926  .00000000  00000-0  00000-0 0  7222
2 89990 024.2063 027.0201 4705288 030.8022 318.0532 00.21321153    05

# Worst residual: 5.06 km
# MJD 59068.000000 (2020 Aug  7  0:00)
S509559
1 89990U 00000AAJ 20220.49919926  .00000000  00000-0  00000-0 0  7224
2 89990 024.2098 027.0194 4697946 030.9307 034.7854 00.21370993    07

# Worst residual: 1.78 km
# MJD 59069.000000 (2020 Aug  8  0:00)
S509559
1 89990U 00000AAJ 20221.49919926  .00000000  00000-0  00000-0 0  7225
2 89990 024.2159 027.0211 4701298 030.9995 111.5083 00.21350888    03

# Worst residual: 4.16 km
# MJD 59070.000000 (2020 Aug  9  0:00)
S509559
1 89990U 00000AAJ 20222.49919926  .00000000  00000-0  00000-0 0  7226
2 89990 024.2189 027.0205 4700377 031.0014 188.3573 00.21350844    08

# Worst residual: 14.85 km
# MJD 59071.000000 (2020 Aug 10  0:00)
S509559
1 89990U 00000AAJ 20223.49919926  .00000000  00000-0  00000-0 0  7227
2 89990 024.2232 027.0177 4699446 030.9103 265.3672 00.21329455    06

# Worst residual: 41.76 km
# MJD 59072.000000 (2020 Aug 11  0:00)
S509559
1 89990U 00000AAJ 20224.49919926  .00000000  00000-0  00000-0 0  7228
2 89990 024.2280 027.0326 4720827 030.8864 342.2847 00.21262685    06

# Worst residual: 31.26 km
# MJD 59073.000000 (2020 Aug 12  0:00)
S509559
1 89990U 00000AAJ 20225.49919926  .00000000  00000-0  00000-0 0  7229
2 89990 024.2315 027.0199 4707811 031.2290 058.7876 00.21287452    09
